CCSDS_OMM_VERS = 2.0
CREATION_DATE  = 
ORIGINATOR     = 

OBJECT_NAME    = SL-16 R/B
OBJECT_ID      = 1993-016B
CENTER_NAME    = EARTH
REF_FRAME      = TEME
TIME_SYSTEM    = UTC
MEAN_ELEMENT_THEORY = SGP/SGP4

EPOCH          = 2025-12-09T07:30:08.659008
MEAN_MOTION    = 14.15287390
ECCENTRICITY   = .00078398
INCLINATION    = 71.0087
RA_OF_ASC_NODE = 45.0019
ARG_OF_PERICENTER = 104.1842
MEAN_ANOMALY   = 256.0153

EPHEMERIS_TYPE = 0
CLASSIFICATION_TYPE = U
NORAD_CAT_ID   = 22566
ELEMENT_SET_NO = 999
REV_AT_EPOCH   = 68938
BSTAR          = -.52139872E-4
MEAN_MOTION_DOT = -.149E-5
MEAN_MOTION_DDOT = 0

CCSDS_OMM_VERS = 2.0
CREATION_DATE  = 
ORIGINATOR     = 

OBJECT_NAME    = COSMOS 2242
OBJECT_ID      = 1993-024A
CENTER_NAME    = EARTH
REF_FRAME      = TEME
TIME_SYSTEM    = UTC
MEAN_ELEMENT_THEORY = SGP/SGP4

EPOCH          = 2025-12-09T02:11:00.851712
MEAN_MOTION    = 14.96081596
ECCENTRICITY   = .0014819
INCLINATION    = 82.5187
RA_OF_ASC_NODE = 353.3322
ARG_OF_PERICENTER = 247.7111
MEAN_ANOMALY   = 112.2540

EPHEMERIS_TYPE = 0
CLASSIFICATION_TYPE = U
NORAD_CAT_ID   = 22626
ELEMENT_SET_NO = 999
REV_AT_EPOCH   = 76684
BSTAR          = .23787591E-3
MEAN_MOTION_DOT = .2703E-4
MEAN_MOTION_DDOT = 0

CCSDS_OMM_VERS = 2.0
CREATION_DATE  = 
ORIGINATOR     = 

OBJECT_NAME    = SL-16 R/B
OBJECT_ID      = 1993-059B
CENTER_NAME    = EARTH
REF_FRAME      = TEME
TIME_SYSTEM    = UTC
MEAN_ELEMENT_THEORY = SGP/SGP4

EPOCH          = 2025-12-09T01:29:04.838784
MEAN_MOTION    = 14.17213324
ECCENTRICITY   = .0017772
INCLINATION    = 70.9897
RA_OF_ASC_NODE = 202.2418
ARG_OF_PERICENTER = 340.8544
MEAN_ANOMALY   = 19.1909

EPHEMERIS_TYPE = 0
CLASSIFICATION_TYPE = U
NORAD_CAT_ID   = 22803
ELEMENT_SET_NO = 999
REV_AT_EPOCH   = 66669
BSTAR          = .63670909E-4
MEAN_MOTION_DOT = .81E-6
MEAN_MOTION_DDOT = 0

CCSDS_OMM_VERS = 2.0
CREATION_DATE  = 
ORIGINATOR     = 

OBJECT_NAME    = ARIANE 40 R/B
OBJECT_ID      = 1993-061H
CENTER_NAME    = EARTH
REF_FRAME      = TEME
TIME_SYSTEM    = UTC
MEAN_ELEMENT_THEORY = SGP/SGP4

EPOCH          = 2025-12-09T04:42:50.819328
MEAN_MOTION    = 14.32797683
ECCENTRICITY   = .00106726
INCLINATION    = 98.5080
RA_OF_ASC_NODE = 48.7908
ARG_OF_PERICENTER = 186.4136
MEAN_ANOMALY   = 173.6914

EPHEMERIS_TYPE = 0
CLASSIFICATION_TYPE = U
NORAD_CAT_ID   = 22830
ELEMENT_SET_NO = 999
REV_AT_EPOCH   = 68114
BSTAR          = .17473849E-3
MEAN_MOTION_DOT = .433E-5
MEAN_MOTION_DDOT = 0

CCSDS_OMM_VERS = 2.0
CREATION_DATE  = 
ORIGINATOR     = 

OBJECT_NAME    = COSMOS 2278
OBJECT_ID      = 1994-023A
CENTER_NAME    = EARTH
REF_FRAME      = TEME
TIME_SYSTEM    = UTC
MEAN_ELEMENT_THEORY = SGP/SGP4

EPOCH          = 2025-12-09T06:46:51.964896
MEAN_MOTION    = 14.14351202
ECCENTRICITY   = .00085073
INCLINATION    = 71.0546
RA_OF_ASC_NODE = 4.2443
ARG_OF_PERICENTER = 185.2543
MEAN_ANOMALY   = 174.8492

EPHEMERIS_TYPE = 0
CLASSIFICATION_TYPE = U
NORAD_CAT_ID   = 23087
ELEMENT_SET_NO = 999
REV_AT_EPOCH   = 63202
BSTAR          = -.27906966E-4
MEAN_MOTION_DOT = -.101E-5
MEAN_MOTION_DDOT = 0

CCSDS_OMM_VERS = 2.0
CREATION_DATE  = 
ORIGINATOR     = 

OBJECT_NAME    = SL-16 R/B
OBJECT_ID      = 1994-023B
CENTER_NAME    = EARTH
REF_FRAME      = TEME
TIME_SYSTEM    = UTC
MEAN_ELEMENT_THEORY = SGP/SGP4

EPOCH          = 2025-12-09T05:29:36.416544
MEAN_MOTION    = 14.15002022
ECCENTRICITY   = .00011911
INCLINATION    = 71.0010
RA_OF_ASC_NODE = 260.8582
ARG_OF_PERICENTER = 41.7118
MEAN_ANOMALY   = 318.4095

EPHEMERIS_TYPE = 0
CLASSIFICATION_TYPE = U
NORAD_CAT_ID   = 23088
ELEMENT_SET_NO = 999
REV_AT_EPOCH   = 63329
BSTAR          = .13844534E-3
MEAN_MOTION_DOT = .22E-5
MEAN_MOTION_DDOT = 0

CCSDS_OMM_VERS = 2.0
CREATION_DATE  = 
ORIGINATOR     = 

OBJECT_NAME    = SL-16 R/B
OBJECT_ID      = 1994-074B
CENTER_NAME    = EARTH
REF_FRAME      = TEME
TIME_SYSTEM    = UTC
MEAN_ELEMENT_THEORY = SGP/SGP4

EPOCH          = 2025-12-09T02:08:33.338400
MEAN_MOTION    = 14.79282790
ECCENTRICITY   = .00072902
INCLINATION    = 97.7204
RA_OF_ASC_NODE = 12.5388
ARG_OF_PERICENTER = 146.3356
MEAN_ANOMALY   = 271.7214

EPHEMERIS_TYPE = 0
CLASSIFICATION_TYPE = U
NORAD_CAT_ID   = 23343
ELEMENT_SET_NO = 999
REV_AT_EPOCH   = 67385
BSTAR          = .10902566E-3
MEAN_MOTION_DOT = .762E-5
MEAN_MOTION_DDOT = 0

CCSDS_OMM_VERS = 2.0
CREATION_DATE  = 
ORIGINATOR     = 

OBJECT_NAME    = SL-16 R/B
OBJECT_ID      = 1994-077B
CENTER_NAME    = EARTH
REF_FRAME      = TEME
TIME_SYSTEM    = UTC
MEAN_ELEMENT_THEORY = SGP/SGP4

EPOCH          = 2025-12-08T23:06:52.900128
MEAN_MOTION    = 14.15547312
ECCENTRICITY   = .0004593
INCLINATION    = 70.9812
RA_OF_ASC_NODE = 183.3590
ARG_OF_PERICENTER = 286.8746
MEAN_ANOMALY   = 73.1873

EPHEMERIS_TYPE = 0
CLASSIFICATION_TYPE = U
NORAD_CAT_ID   = 23405
ELEMENT_SET_NO = 999
REV_AT_EPOCH   = 60339
BSTAR          = .14451E-3
MEAN_MOTION_DOT = .235E-5
MEAN_MOTION_DDOT = 0

CCSDS_OMM_VERS = 2.0
CREATION_DATE  = 
ORIGINATOR     = 

OBJECT_NAME    = ARIANE 40+ R/B
OBJECT_ID      = 1995-021B
CENTER_NAME    = EARTH
REF_FRAME      = TEME
TIME_SYSTEM    = UTC
MEAN_ELEMENT_THEORY = SGP/SGP4

EPOCH          = 2025-12-09T04:35:49.156224
MEAN_MOTION    = 14.39691045
ECCENTRICITY   = .00076108
INCLINATION    = 98.4654
RA_OF_ASC_NODE = 50.8231
ARG_OF_PERICENTER = 59.2908
MEAN_ANOMALY   = 358.8760

EPHEMERIS_TYPE = 0
CLASSIFICATION_TYPE = U
NORAD_CAT_ID   = 23561
ELEMENT_SET_NO = 999
REV_AT_EPOCH   = 60622
BSTAR          = .17569103E-3
MEAN_MOTION_DOT = .506E-5
MEAN_MOTION_DDOT = 0

CCSDS_OMM_VERS = 2.0
CREATION_DATE  = 
ORIGINATOR     = 

OBJECT_NAME    = SL-16 R/B
OBJECT_ID      = 1995-058B
CENTER_NAME    = EARTH
REF_FRAME      = TEME
TIME_SYSTEM    = UTC
MEAN_ELEMENT_THEORY = SGP/SGP4

EPOCH          = 2025-12-09T07:39:18.079200
MEAN_MOTION    = 14.15482838
ECCENTRICITY   = .00149376
INCLINATION    = 71.0225
RA_OF_ASC_NODE = 9.9864
ARG_OF_PERICENTER = 259.4992
MEAN_ANOMALY   = 100.4448

EPHEMERIS_TYPE = 0
CLASSIFICATION_TYPE = U
NORAD_CAT_ID   = 23705
ELEMENT_SET_NO = 999
REV_AT_EPOCH   = 55506
BSTAR          = .14217192E-3
MEAN_MOTION_DOT = .23E-5
MEAN_MOTION_DDOT = 0

CCSDS_OMM_VERS = 2.0
CREATION_DATE  = 
ORIGINATOR     = 

OBJECT_NAME    = SL-16 R/B
OBJECT_ID      = 1996-051B
CENTER_NAME    = EARTH
REF_FRAME      = TEME
TIME_SYSTEM    = UTC
MEAN_ELEMENT_THEORY = SGP/SGP4

EPOCH          = 2025-12-09T07:14:20.193504
MEAN_MOTION    = 14.12396179
ECCENTRICITY   = .00193381
INCLINATION    = 70.7596
RA_OF_ASC_NODE = 6.5617
ARG_OF_PERICENTER = 265.5516
MEAN_ANOMALY   = 94.3395

EPHEMERIS_TYPE = 0
CLASSIFICATION_TYPE = U
NORAD_CAT_ID   = 24298
ELEMENT_SET_NO = 999
REV_AT_EPOCH   = 50888
BSTAR          = .51607005E-4
MEAN_MOTION_DOT = .46E-6
MEAN_MOTION_DDOT = 0

CCSDS_OMM_VERS = 2.0
CREATION_DATE  = 
ORIGINATOR     = 

OBJECT_NAME    = ORBVIEW 2 (SEASTAR)
OBJECT_ID      = 1997-037A
CENTER_NAME    = EARTH
REF_FRAME      = TEME
TIME_SYSTEM    = UTC
MEAN_ELEMENT_THEORY = SGP/SGP4

EPOCH          = 2025-12-09T06:58:27.598944
MEAN_MOTION    = 14.35413470
ECCENTRICITY   = .00018269
INCLINATION    = 98.8455
RA_OF_ASC_NODE = 140.2783
ARG_OF_PERICENTER = 352.9864
MEAN_ANOMALY   = 7.1295

EPHEMERIS_TYPE = 0
CLASSIFICATION_TYPE = U
NORAD_CAT_ID   = 24883
ELEMENT_SET_NO = 999
REV_AT_EPOCH   = 49550
BSTAR          = .23294562E-3
MEAN_MOTION_DOT = .622E-5
MEAN_MOTION_DDOT = 0

