SL-16 R/B               
1 22566U 93016B   25343.31260022 -.00000149  00000+0 -52140-4 0  9994
2 22566  71.0087  45.0019 0007839 104.1842 256.0153 14.15287390689388
COSMOS 2242             
1 22626U 93024A   25343.09098208  .00002703  00000+0  23788-3 0  9991
2 22626  82.5187 353.3322 0014819 247.7111 112.2540 14.96081596766843
SL-16 R/B               
1 22803U 93059B   25343.06186156  .00000081  00000+0  63671-4 0  9996
2 22803  70.9897 202.2418 0017772 340.8544  19.1909 14.17213324666698
ARIANE 40 R/B           
1 22830U 93061H   25343.19642152  .00000433  00000+0  17474-3 0  9996
2 22830  98.5080  48.7908 0010672 186.4136 173.6914 14.32797683681149
COSMOS 2278             
1 23087U 94023A   25343.28254589 -.00000101  00000+0 -27907-4 0  9990
2 23087  71.0546   4.2443 0008507 185.2543 174.8492 14.14351202632021
SL-16 R/B               
1 23088U 94023B   25343.22889371  .00000220  00000+0  13845-3 0  9993
2 23088  71.0010 260.8582 0001191  41.7118 318.4095 14.15002022633297
SL-16 R/B               
1 23343U 94074B   25343.08927475  .00000762  00000+0  10903-3 0  9998
2 23343  97.7204  12.5388 0007290 146.3356 271.7214 14.79282790673851
SL-16 R/B               
1 23405U 94077B   25342.96311227  .00000235  00000+0  14451-3 0  9995
2 23405  70.9812 183.3590 0004593 286.8746  73.1873 14.15547312603397
ARIANE 40+ R/B          
1 23561U 95021B   25343.19154116  .00000506  00000+0  17569-3 0  9990
2 23561  98.4654  50.8231 0007610  59.2908 358.8760 14.39691045606226
SL-16 R/B               
1 23705U 95058B   25343.31895925  .00000230  00000+0  14217-3 0  9995
2 23705  71.0225   9.9864 0014937 259.4992 100.4448 14.15482838555062
SL-16 R/B               
1 24298U 96051B   25343.30162261  .00000046  00000+0  51607-4 0  9996
2 24298  70.7596   6.5617 0019338 265.5516  94.3395 14.12396179508885
ORBVIEW 2 (SEASTAR)     
1 24883U 97037A   25343.29059721  .00000622  00000+0  23295-3 0  9996
2 24883  98.8455 140.2783 0001826 352.9864   7.1295 14.35413470495504
